$$SOE
2459580.500000000, A.D. 2022-Jan-01 00:00:00.0000, 1.325459531860438E+08, 3.393881999898384E+08, 6.431663257134114E+07,
2459587.500000000, A.D. 2022-Jan-08 00:00:00.0000, 1.216483116408974E+08, 3.439095423839280E+08, 6.543033109954444E+07,
2459594.500000000, A.D. 2022-Jan-15 00:00:00.0000, 1.106346311233288E+08, 3.481029201561997E+08, 6.648163459563959E+07,
2459601.500000000, A.D. 2022-Jan-22 00:00:00.0000, 9.951597027726504E+07, 3.519660749392685E+08, 6.746987269384177E+07,
2459608.500000000, A.D. 2022-Jan-29 00:00:00.0000, 8.830339128733620E+07, 3.554971537537533E+08, 6.839445462835684E+07,
2459615.500000000, A.D. 2022-Feb-05 00:00:00.0000, 7.700794016815162E+07, 3.586947033428698E+08, 6.925486874778558E+07,
2459622.500000000, A.D. 2022-Feb-12 00:00:00.0000, 6.564062980639000E+07, 3.615576626293931E+08, 7.005068157443939E+07,
2459629.500000000, A.D. 2022-Feb-19 00:00:00.0000, 5.421242447475157E+07, 3.640853557201783E+08, 7.078153673347081E+07,
2459636.500000000, A.D. 2022-Feb-26 00:00:00.0000, 4.273422454098521E+07, 3.662774847882219E+08, 7.144715382183711E+07,
2459643.500000000, A.D. 2022-Mar-05 00:00:00.0000, 3.121685155914675E+07, 3.681341222715618E+08, 7.204732716198203E+07,
2459650.500000000, A.D. 2022-Mar-12 00:00:00.0000, 1.967103398842160E+07, 3.696557023814599E+08, 7.258192442509346E+07,
2459657.500000000, A.D. 2022-Mar-19 00:00:00.0000, 8.107393629553815E+06, 3.708430120063699E+08, 7.305088513047542E+07,
2459664.500000000, A.D. 2022-Mar-26 00:00:00.0000, -3.463567184418688E+06, 3.716971810637965E+08, 7.345421902930059E+07,
2459671.500000000, A.D. 2022-Apr-02 00:00:00.0000, -1.503147756568320E+07, 3.722196723013727E+08, 7.379200437271972E+07,
2459678.500000000, A.D. 2022-Apr-09 00:00:00.0000, -2.658610894040967E+07, 3.724122706080275E+08, 7.406438605047584E+07,
2459685.500000000, A.D. 2022-Apr-16 00:00:00.0000, -3.811738445131832E+07, 3.722770725448646E+08, 7.427157363159409E+07,
2459692.500000000, A.D. 2022-Apr-23 00:00:00.0000, -4.961538816536770E+07, 3.718164772358391E+08, 7.441383952323303E+07,
2459699.500000000, A.D. 2022-Apr-30 00:00:00.0000, -6.107037595968134E+07, 3.710331764227074E+08, 7.449151724506210E+07,
2459706.500000000, A.D. 2022-May-07 00:00:00.0000, -7.247278503410970E+07, 3.699301417531394E+08, 7.450499938512099E+07,
2459713.500000000, A.D. 2022-May-14 00:00:00.0000, -8.381324067813671E+07, 3.685106123896962E+08, 7.445473536877547E+07,
2459720.500000000, A.D. 2022-May-21 00:00:00.0000, -9.508256233706108E+07, 3.667780837465002E+08, 7.434122929896022E+07,
2459727.500000000, A.D. 2022-May-28 00:00:00.0000, -1.062717694725970E+08, 3.647362964349319E+08, 7.416503784123467E+07,
2459734.500000000, A.D. 2022-Jun-04 00:00:00.0000, -1.173720869610707E+08, 3.623892251430167E+08, 7.392676811041999E+07,
2459741.500000000, A.D. 2022-Jun-11 00:00:00.0000, -1.283749499068287E+08, 3.597410674865219E+08, 7.362707555329998E+07,
2459748.500000000, A.D. 2022-Jun-18 00:00:00.0000, -1.392720078558291E+08, 3.567962328785003E+08, 7.326666183205895E+07,
2459755.500000000, A.D. 2022-Jun-25 00:00:00.0000, -1.500551284048295E+08, 3.535593314148283E+08, 7.284627270967188E+07,
2459762.500000000, A.D. 2022-Jul-02 00:00:00.0000, -1.607164000980099E+08, 3.500351627378814E+08, 7.236669592568503E+07,
2459769.500000000, A.D. 2022-Jul-09 00:00:00.0000, -1.712481342476899E+08, 3.462287050803218E+08, 7.182875904668643E+07,
2459776.500000000, A.D. 2022-Jul-16 00:00:00.0000, -1.816428657628290E+08, 3.421451055948131E+08, 7.123332739047205E+07,
2459783.500000000, A.D. 2022-Jul-23 00:00:00.0000, -1.918933552126988E+08, 3.377896720703145E+08, 7.058130223741741E+07,
2459790.500000000, A.D. 2022-Jul-30 00:00:00.0000, -2.019925920667800E+08, 3.331678626996589E+08, 6.987361905134706E+07,
2459797.500000000, A.D. 2022-Aug-06 00:00:00.0000, -2.119337955388049E+08, 3.282852745569125E+08, 6.911124543560332E+07,
2459804.500000000, A.D. 2022-Aug-13 00:00:00.0000, -2.217104138904205E+08, 3.231476335530472E+08, 6.829517912938796E+07,
2459811.500000000, A.D. 2022-Aug-20 00:00:00.0000, -2.313161237920492E+08, 3.177607853826553E+08, 6.742644615125196E+07,
2459818.500000000, A.D. 2022-Aug-27 00:00:00.0000, -2.407448296973072E+08, 3.121306867457668E+08, 6.650609902623536E+07,
2459825.500000000, A.D. 2022-Sep-03 00:00:00.0000, -2.499906630066461E+08, 3.062633967407270E+08, 6.553521506566407E+07,
2459832.500000000, A.D. 2022-Sep-10 00:00:00.0000, -2.590479809529065E+08, 3.001650684549008E+08, 6.451489469309023E+07,
2459839.500000000, A.D. 2022-Sep-17 00:00:00.0000, -2.679113652025820E+08, 2.938419407507130E+08, 6.344625981334293E+07,
2459846.500000000, A.D. 2022-Sep-24 00:00:00.0000, -2.765756201375829E+08, 2.873003301941687E+08, 6.233045221610071E+07,
2459853.500000000, A.D. 2022-Oct-01 00:00:00.0000, -2.850357706043556E+08, 2.805466231033525E+08, 6.116863199251595E+07,
2459860.500000000, A.D. 2022-Oct-08 00:00:00.0000, -2.932870587492567E+08, 2.735872682408782E+08, 5.996197597238712E+07,
2459867.500000000, A.D. 2022-Oct-15 00:00:00.0000, -3.013249408964914E+08, 2.664287713517266E+08, 5.871167636637819E+07,
2459874.500000000, A.D. 2022-Oct-22 00:00:00.0000, -3.091450866725669E+08, 2.590776898648672E+08, 5.741893967581835E+07,
2459881.500000000, A.D. 2022-Oct-29 00:00:00.0000, -3.167433778956773E+08, 2.515406251643652E+08, 5.608498542773257E+07,
2459888.500000000, A.D. 2022-Nov-05 00:00:00.0000, -3.241159051449000E+08, 2.438242151629160E+08, 5.471104476441990E+07,
2459895.500000000, A.D. 2022-Nov-12 00:00:00.0000, -3.312589639935567E+08, 2.359351284375109E+08, 5.329835917027995E+07,
2459902.500000000, A.D. 2022-Nov-19 00:00:00.0000, -3.381690516445878E+08, 2.278800589688946E+08, 5.184817932319441E+07,
2459909.500000000, A.D. 2022-Nov-26 00:00:00.0000, -3.448428637207395E+08, 2.196657210816438E+08, 5.036176401277269E+07,
2459916.500000000, A.D. 2022-Dec-03 00:00:00.0000, -3.512772910576705E+08, 2.112988445658756E+08, 4.884037910799858E+07,
2459923.500000000, A.D. 2022-Dec-10 00:00:00.0000, -3.574694164682322E+08, 2.027861699914953E+08, 4.728529657038726E+07,
2459930.500000000, A.D. 2022-Dec-17 00:00:00.0000, -3.634165114662913E+08, 1.941344441821455E+08, 4.569779350711481E+07,
2459937.500000000, A.D. 2022-Dec-24 00:00:00.0000, -3.691160328528786E+08, 1.853504157750410E+08, 4.407915124744879E+07,
2459944.500000000, A.D. 2022-Dec-31 00:00:00.0000, -3.745656188181608E+08, 1.764408309659417E+08, 4.243065441715214E+07,
2459951.500000000, A.D. 2023-Jan-07 00:00:00.0000, -3.797630844468019E+08, 1.674124303928706E+08, 4.075359007688801E+07,
2459958.500000000, A.D. 2023-Jan-14 00:00:00.0000, -3.847064186045390E+08, 1.582719476463910E+08, 3.904924714435209E+07,
2459965.500000000, A.D. 2023-Jan-21 00:00:00.0000, -3.893937828622714E+08, 1.490261062265931E+08, 3.731891589886185E+07,
2459972.500000000, A.D. 2023-Jan-28 00:00:00.0000, -3.938235087968943E+08, 1.396816147448948E+08, 3.556388721459560E+07,
2459979.500000000, A.D. 2023-Feb-04 00:00:00.0000, -3.979940938816456E+08, 1.302451633884325E+08, 3.378545178731051E+07,
2459986.500000000, A.D. 2023-Feb-11 00:00:00.0000, -4.019041977692069E+08, 1.207234214432613E+08, 3.198489950193046E+07,
2459993.500000000, A.D. 2023-Feb-18 00:00:00.0000, -4.055526390392553E+08, 1.111230350460725E+08, 3.016351887823471E+07,
2460000.500000000, A.D. 2023-Feb-25 00:00:00.0000, -4.089383921530668E+08, 1.014506249960450E+08, 2.832259655585722E+07,
2460007.500000000, A.D. 2023-Mar-04 00:00:00.0000, -4.120605845165330E+08, 9.171278463817996E+07, 2.646341680916790E+07,
2460014.500000000, A.D. 2023-Mar-11 00:00:00.0000, -4.149184936258165E+08, 8.191607781055461E+07, 2.458726108788165E+07,
2460021.500000000, A.D. 2023-Mar-18 00:00:00.0000, -4.175115442511248E+08, 7.206703679754168E+07, 2.269540757357498E+07,
2460028.500000000, A.D. 2023-Mar-25 00:00:00.0000, -4.198393054578689E+08, 6.217216023301914E+07, 2.078913072833253E+07,
2460035.500000000, A.D. 2023-Apr-01 00:00:00.0000, -4.219014870434767E+08, 5.223791133813918E+07, 1.886970082765201E+07,
2460042.500000000, A.D. 2023-Apr-08 00:00:00.0000, -4.236979360084379E+08, 4.227071770982136E+07, 1.693838363318653E+07,
2460049.500000000, A.D. 2023-Apr-15 00:00:00.0000, -4.252286354034218E+08, 3.227697154528584E+07, 1.499644032828319E+07,
2460056.500000000, A.D. 2023-Apr-22 00:00:00.0000, -4.264937037496219E+08, 2.226302724432696E+07, 1.304512729986495E+07,
2460063.500000000, A.D. 2023-Apr-29 00:00:00.0000, -4.274933923000761E+08, 1.223519863807063E+07, 1.108569569868321E+07,
2460070.500000000, A.D. 2023-May-06 00:00:00.0000, -4.282280819013887E+08, 2.199757619852191E+06, 9.119391083512200E+06,
2460077.500000000, A.D. 2023-May-13 00:00:00.0000, -4.286982804331673E+08, -7.837066721816489E+06, 7.147453164202018E+06,
2460084.500000000, A.D. 2023-May-20 00:00:00.0000, -4.289046205916629E+08, -1.786908896438785E+07, 5.171115580341743E+06,
2460091.500000000, A.D. 2023-May-27 00:00:00.0000, -4.288478578223032E+08, -2.789016824098509E+07, 3.191605693922034E+06,
2460098.500000000, A.D. 2023-Jun-03 00:00:00.0000, -4.285288683406814E+08, -3.789420913953903E+07, 1.210144391541306E+06,
2460105.500000000, A.D. 2023-Jun-10 00:00:00.0000, -4.279486472170486E+08, -4.787516263346275E+07, -7.720541084115356E+05,
2460112.500000000, A.D. 2023-Jun-17 00:00:00.0000, -4.271083064366667E+08, -5.782702711198987E+07, -2.753782458023958E+06,
2460119.500000000, A.D. 2023-Jun-24 00:00:00.0000, -4.260090726186161E+08, -6.774384946082801E+07, -4.733840417827662E+06,
2460126.500000000, A.D. 2023-Jul-01 00:00:00.0000, -4.246522841415153E+08, -7.761972536959292E+07, -6.711035087440442E+06,
2460133.500000000, A.D. 2023-Jul-08 00:00:00.0000, -4.230393893499103E+08, -8.744879804821973E+07, -8.684180909501731E+06,
2460140.500000000, A.D. 2023-Jul-15 00:00:00.0000, -4.211719471179090E+08, -9.722525818726426E+07, -1.065209956240337E+07,
2460147.500000000, A.D. 2023-Jul-22 00:00:00.0000, -4.190516262494681E+08, -1.069433462010424E+08, -1.261362015062106E+07,
$$EOE